[Satellite]
VERSION=1.1
NAME=SUZAKU (ASTRO-EII)
NICKNAME=SUZAKU (ASTRO-EII)
TLE1=1 28773U 05025A   19317.53912994  .00000803  00000-0  34999-4 0  9991
TLE2=2 28773  31.3835 346.8019 0004521 185.8276 174.2319 15.17261533790964
STATUS=0
